CCSDS_OMM_VERS = 2.0
CREATION_DATE  = 
ORIGINATOR     = 

OBJECT_NAME    = ALOS (DAICHI)
OBJECT_ID      = 2006-002A
CENTER_NAME    = EARTH
REF_FRAME      = TEME
TIME_SYSTEM    = UTC
MEAN_ELEMENT_THEORY = SGP/SGP4

EPOCH          = 2025-12-10T20:34:00.208704
MEAN_MOTION    = 14.69478640
ECCENTRICITY   = .0001052
INCLINATION    = 98.1091
RA_OF_ASC_NODE = 296.3575
ARG_OF_PERICENTER = 114.5857
MEAN_ANOMALY   = 245.5458

EPHEMERIS_TYPE = 0
CLASSIFICATION_TYPE = U
NORAD_CAT_ID   = 28931
ELEMENT_SET_NO = 999
REV_AT_EPOCH   = 6043
BSTAR          = .41819E-3
MEAN_MOTION_DOT = .2429E-4
MEAN_MOTION_DDOT = 0

CCSDS_OMM_VERS = 2.0
CREATION_DATE  = 
ORIGINATOR     = 

OBJECT_NAME    = H-2A R/B
OBJECT_ID      = 2006-002B
CENTER_NAME    = EARTH
REF_FRAME      = TEME
TIME_SYSTEM    = UTC
MEAN_ELEMENT_THEORY = SGP/SGP4

EPOCH          = 2025-12-10T08:10:48.595872
MEAN_MOTION    = 15.14489465
ECCENTRICITY   = .00545209
INCLINATION    = 98.2316
RA_OF_ASC_NODE = 118.8933
ARG_OF_PERICENTER = 184.5657
MEAN_ANOMALY   = 175.5083

EPHEMERIS_TYPE = 0
CLASSIFICATION_TYPE = U
NORAD_CAT_ID   = 28932
ELEMENT_SET_NO = 999
REV_AT_EPOCH   = 8090
BSTAR          = .84576323E-3
MEAN_MOTION_DOT = .16099E-3
MEAN_MOTION_DDOT = 0

CCSDS_OMM_VERS = 2.0
CREATION_DATE  = 
ORIGINATOR     = 

OBJECT_NAME    = RESURS-DK 1
OBJECT_ID      = 2006-021A
CENTER_NAME    = EARTH
REF_FRAME      = TEME
TIME_SYSTEM    = UTC
MEAN_ELEMENT_THEORY = SGP/SGP4

EPOCH          = 2025-12-10T18:42:49.205952
MEAN_MOTION    = 15.12143770
ECCENTRICITY   = .0007431
INCLINATION    = 69.9334
RA_OF_ASC_NODE = 106.9034
ARG_OF_PERICENTER = 261.2716
MEAN_ANOMALY   = 98.7608

EPHEMERIS_TYPE = 0
CLASSIFICATION_TYPE = U
NORAD_CAT_ID   = 29228
ELEMENT_SET_NO = 999
REV_AT_EPOCH   = 7408
BSTAR          = .25581E-3
MEAN_MOTION_DOT = .4317E-4
MEAN_MOTION_DDOT = 0

CCSDS_OMM_VERS = 2.0
CREATION_DATE  = 
ORIGINATOR     = 

OBJECT_NAME    = CZ-4B R/B
OBJECT_ID      = 2006-046C
CENTER_NAME    = EARTH
REF_FRAME      = TEME
TIME_SYSTEM    = UTC
MEAN_ELEMENT_THEORY = SGP/SGP4

EPOCH          = 2025-12-10T09:25:29.715456
MEAN_MOTION    = 15.15833088
ECCENTRICITY   = .00330985
INCLINATION    = 97.5735
RA_OF_ASC_NODE = 24.5369
ARG_OF_PERICENTER = 214.8681
MEAN_ANOMALY   = 145.0384

EPHEMERIS_TYPE = 0
CLASSIFICATION_TYPE = U
NORAD_CAT_ID   = 29507
ELEMENT_SET_NO = 999
REV_AT_EPOCH   = 4651
BSTAR          = .41543774E-3
MEAN_MOTION_DOT = .7984E-4
MEAN_MOTION_DDOT = 0

CCSDS_OMM_VERS = 2.0
CREATION_DATE  = 
ORIGINATOR     = 

OBJECT_NAME    = CZ-2C R/B
OBJECT_ID      = 2007-010B
CENTER_NAME    = EARTH
REF_FRAME      = TEME
TIME_SYSTEM    = UTC
MEAN_ELEMENT_THEORY = SGP/SGP4

EPOCH          = 2025-12-10T14:31:22.977984
MEAN_MOTION    = 14.20208749
ECCENTRICITY   = .0058857
INCLINATION    = 98.3974
RA_OF_ASC_NODE = 97.3635
ARG_OF_PERICENTER = 192.2115
MEAN_ANOMALY   = 167.7640

EPHEMERIS_TYPE = 0
CLASSIFICATION_TYPE = U
NORAD_CAT_ID   = 31114
ELEMENT_SET_NO = 999
REV_AT_EPOCH   = 96707
BSTAR          = .15777E-3
MEAN_MOTION_DOT = .302E-5
MEAN_MOTION_DDOT = 0

CCSDS_OMM_VERS = 2.0
CREATION_DATE  = 
ORIGINATOR     = 

OBJECT_NAME    = COSMO-SKYMED 1
OBJECT_ID      = 2007-023A
CENTER_NAME    = EARTH
REF_FRAME      = TEME
TIME_SYSTEM    = UTC
MEAN_ELEMENT_THEORY = SGP/SGP4

EPOCH          = 2025-12-10T20:21:21.290112
MEAN_MOTION    = 14.95740302
ECCENTRICITY   = .0001075
INCLINATION    = 97.8835
RA_OF_ASC_NODE = 170.2351
ARG_OF_PERICENTER = 85.5833
MEAN_ANOMALY   = 274.5510

EPHEMERIS_TYPE = 0
CLASSIFICATION_TYPE = U
NORAD_CAT_ID   = 31598
ELEMENT_SET_NO = 999
REV_AT_EPOCH   = 162
BSTAR          = .52805E-3
MEAN_MOTION_DOT = .5826E-4
MEAN_MOTION_DDOT = 0

CCSDS_OMM_VERS = 2.0
CREATION_DATE  = 
ORIGINATOR     = 

OBJECT_NAME    = COSMOS 2428
OBJECT_ID      = 2007-029A
CENTER_NAME    = EARTH
REF_FRAME      = TEME
TIME_SYSTEM    = UTC
MEAN_ELEMENT_THEORY = SGP/SGP4

EPOCH          = 2025-12-10T19:50:37.851072
MEAN_MOTION    = 14.12889071
ECCENTRICITY   = .0003562
INCLINATION    = 70.9369
RA_OF_ASC_NODE = 29.8964
ARG_OF_PERICENTER = 26.2590
MEAN_ANOMALY   = 333.8711

EPHEMERIS_TYPE = 0
CLASSIFICATION_TYPE = U
NORAD_CAT_ID   = 31792
ELEMENT_SET_NO = 999
REV_AT_EPOCH   = 95154
BSTAR          = .82794E-4
MEAN_MOTION_DOT = .106E-5
MEAN_MOTION_DDOT = 0

CCSDS_OMM_VERS = 2.0
CREATION_DATE  = 
ORIGINATOR     = 

OBJECT_NAME    = SL-16 R/B
OBJECT_ID      = 2007-029B
CENTER_NAME    = EARTH
REF_FRAME      = TEME
TIME_SYSTEM    = UTC
MEAN_ELEMENT_THEORY = SGP/SGP4

EPOCH          = 2025-12-10T18:50:39.666048
MEAN_MOTION    = 14.14814772
ECCENTRICITY   = .000224
INCLINATION    = 70.9758
RA_OF_ASC_NODE = 359.2668
ARG_OF_PERICENTER = 263.1342
MEAN_ANOMALY   = 270.3177

EPHEMERIS_TYPE = 0
CLASSIFICATION_TYPE = U
NORAD_CAT_ID   = 31793
ELEMENT_SET_NO = 999
REV_AT_EPOCH   = 95279
BSTAR          = -.38251E-4
MEAN_MOTION_DOT = -.122E-5
MEAN_MOTION_DDOT = 0

CCSDS_OMM_VERS = 2.0
CREATION_DATE  = 
ORIGINATOR     = 

OBJECT_NAME    = KORONAS-FOTON
OBJECT_ID      = 2009-003A
CENTER_NAME    = EARTH
REF_FRAME      = TEME
TIME_SYSTEM    = UTC
MEAN_ELEMENT_THEORY = SGP/SGP4

EPOCH          = 2025-12-10T19:21:28.472256
MEAN_MOTION    = 15.41117062
ECCENTRICITY   = .0013138
INCLINATION    = 82.4316
RA_OF_ASC_NODE = 8.1087
ARG_OF_PERICENTER = 114.5004
MEAN_ANOMALY   = 245.7614

EPHEMERIS_TYPE = 0
CLASSIFICATION_TYPE = U
NORAD_CAT_ID   = 33504
ELEMENT_SET_NO = 999
REV_AT_EPOCH   = 93204
BSTAR          = .44978E-3
MEAN_MOTION_DOT = .18723E-3
MEAN_MOTION_DDOT = 0

CCSDS_OMM_VERS = 2.0
CREATION_DATE  = 
ORIGINATOR     = 

OBJECT_NAME    = CZ-2C R/B
OBJECT_ID      = 2011-030B
CENTER_NAME    = EARTH
REF_FRAME      = TEME
TIME_SYSTEM    = UTC
MEAN_ELEMENT_THEORY = SGP/SGP4

EPOCH          = 2025-12-10T16:48:07.985088
MEAN_MOTION    = 14.80891761
ECCENTRICITY   = .0051394
INCLINATION    = 97.8411
RA_OF_ASC_NODE = 298.8517
ARG_OF_PERICENTER = 280.4646
MEAN_ANOMALY   = 131.3767

EPHEMERIS_TYPE = 0
CLASSIFICATION_TYPE = U
NORAD_CAT_ID   = 37731
ELEMENT_SET_NO = 999
REV_AT_EPOCH   = 77692
BSTAR          = .35626E-3
MEAN_MOTION_DOT = .2761E-4
MEAN_MOTION_DDOT = 0

CCSDS_OMM_VERS = 2.0
CREATION_DATE  = 
ORIGINATOR     = 

OBJECT_NAME    = H-2A R/B
OBJECT_ID      = 2012-025E
CENTER_NAME    = EARTH
REF_FRAME      = TEME
TIME_SYSTEM    = UTC
MEAN_ELEMENT_THEORY = SGP/SGP4

EPOCH          = 2025-12-10T15:08:43.261728
MEAN_MOTION    = 14.94428641
ECCENTRICITY   = .0043625
INCLINATION    = 98.4599
RA_OF_ASC_NODE = 299.6985
ARG_OF_PERICENTER = 243.1856
MEAN_ANOMALY   = 116.4898

EPHEMERIS_TYPE = 0
CLASSIFICATION_TYPE = U
NORAD_CAT_ID   = 38341
ELEMENT_SET_NO = 999
REV_AT_EPOCH   = 73491
BSTAR          = .54575E-3
MEAN_MOTION_DOT = .5926E-4
MEAN_MOTION_DDOT = 0

CCSDS_OMM_VERS = 2.0
CREATION_DATE  = 
ORIGINATOR     = 

OBJECT_NAME    = SHIJIAN-16 (SJ-16)
OBJECT_ID      = 2013-057A
CENTER_NAME    = EARTH
REF_FRAME      = TEME
TIME_SYSTEM    = UTC
MEAN_ELEMENT_THEORY = SGP/SGP4

EPOCH          = 2025-12-10T20:36:45.892800
MEAN_MOTION    = 14.91978505
ECCENTRICITY   = .0017576
INCLINATION    = 74.9731
RA_OF_ASC_NODE = 353.2139
ARG_OF_PERICENTER = 324.1735
MEAN_ANOMALY   = 35.8272

EPHEMERIS_TYPE = 0
CLASSIFICATION_TYPE = U
NORAD_CAT_ID   = 39358
ELEMENT_SET_NO = 999
REV_AT_EPOCH   = 65825
BSTAR          = .23835E-3
MEAN_MOTION_DOT = .2393E-4
MEAN_MOTION_DDOT = 0

