ALOS (DAICHI)           
1 28931U 06002A   25344.85694686  .00002429  00000+0  41819-3 0  9993
2 28931  98.1091 296.3575 0001052 114.5857 245.5458 14.69478640 60434
H-2A R/B                
1 28932U 06002B   25344.34084023  .00016099  00000+0  84576-3 0  9991
2 28932  98.2316 118.8933 0054520 184.5657 175.5083 15.14489465 80903
RESURS-DK 1             
1 29228U 06021A   25344.77973618  .00004317  00000+0  25581-3 0  9996
2 29228  69.9334 106.9034 0007431 261.2716  98.7608 15.12143770 74080
CZ-4B R/B               
1 29507U 06046C   25344.39270504  .00007984  00000+0  41544-3 0  9995
2 29507  97.5735  24.5369 0033098 214.8681 145.0384 15.15833088 46516
CZ-2C R/B               
1 31114U 07010B   25344.60512706  .00000302  00000+0  15777-3 0  9997
2 31114  98.3974  97.3635 0058857 192.2115 167.7640 14.20208749967076
COSMO-SKYMED 1          
1 31598U 07023A   25344.84816308  .00005826  00000+0  52805-3 0  9997
2 31598  97.8835 170.2351 0001075  85.5833 274.5510 14.95740302  1620
COSMOS 2428             
1 31792U 07029A   25344.82682698  .00000106  00000+0  82794-4 0  9997
2 31792  70.9369  29.8964 0003562  26.2590 333.8711 14.12889071951547
SL-16 R/B               
1 31793U 07029B   25344.78518132 -.00000122  00000+0 -38251-4 0  9993
2 31793  70.9758 359.2668 0002240 263.1342 270.3177 14.14814772952797
KORONAS-FOTON           
1 33504U 09003A   25344.80657954  .00018723  00000+0  44978-3 0  9994
2 33504  82.4316   8.1087 0013138 114.5004 245.7614 15.41117062932041
CZ-2C R/B               
1 37731U 11030B   25344.70009242  .00002761  00000+0  35626-3 0  9998
2 37731  97.8411 298.8517 0051394 280.4646 131.3767 14.80891761776929
H-2A R/B                
1 38341U 12025E   25344.63105627  .00005926  00000+0  54575-3 0  9997
2 38341  98.4599 299.6985 0043625 243.1856 116.4898 14.94428641734916
SHIJIAN-16 (SJ-16)      
1 39358U 13057A   25344.85886450  .00002393  00000+0  23835-3 0  9996
2 39358  74.9731 353.2139 0017576 324.1735  35.8272 14.91978505658250
